ONEWEB-0311             
1 49097U 21075Y   25273.39407052  .00000067  00000+0  13925-3 0  9998
2 49097  87.9072  57.5192 0001924  88.1613 271.9739 13.17646521199414
ONEWEB-0312             
1 49098U 21075Z   25272.87770670  .00000036  00000+0  60444-4 0  9995
2 49098  87.9066  57.6532 0002002  94.0835 266.0525 13.17650669199323
ONEWEB-0313             
1 49099U 21075AA  25273.41418080  .00000012  00000+0 -19365-5 0  9993
2 49099  87.9063  57.5563 0001755  92.3517 267.7815 13.17651817199388
ONEWEB-0314             
1 49100U 21075AB  25272.84902941  .00000132  00000+0  30594-3 0  9993
2 49100  87.9080  57.6114 0002048  93.6061 266.5305 13.17651766199280
ONEWEB-0315             
1 49101U 21075AC  25273.39313316 -.00000319  00000+0 -92201-3 0  9999
2 49101  87.8929  42.2517 0001822  86.0647 274.0689 13.12442297201098
ONEWEB-0316             
1 49102U 21075AD  25273.28184480 -.00000042  00000+0 -13824-3 0  9993
2 49102  87.9218  27.0780 0001776  94.8453 265.2882 13.18686445202958
ONEWEB-0317             
1 49103U 21075AE  25273.08168965 -.00000380  00000+0 -10924-2 0  9994
2 49103  87.8931  42.3287 0001831 124.8936 235.2365 13.12441314201077
ONEWEB-0318             
1 49104U 21075AF  25272.82329283  .00000061  00000+0  12223-3 0  9997
2 49104  87.9215  27.1555 0001794  92.0378 268.0960 13.18687661202852
